[{"name":"INTELSAT 23 (IS-23)","l1":"1 38867U 12057A   26183.69987551 -.00000274  00000+0  00000+0 0  9999","l2":"2 38867   0.0143   8.6659 0000323 199.1515 271.8539  1.00267246 50115","cat":"geostationary"},{"name":"FM-6","l1":"1 39360U 13058A   26183.70211648 -.00000005  00000+0  00000+0 0  9991","l2":"2 39360   0.0160  40.7600 0001960 138.6453 237.7772  1.00271889 46228","cat":"geostationary"},{"name":"INTELSAT 30 (IS-30)","l1":"1 40271U 14062A   26183.42121126 -.00000140  00000+0  00000+0 0  9990","l2":"2 40271   0.0209  49.6416 0001446 348.4439 298.9563  1.00273081  6940","cat":"geostationary"},{"name":"DIRECTV 14","l1":"1 40333U 14078B   26183.42034461 -.00000115  00000+0  00000+0 0  9993","l2":"2 40333   0.0102  26.2148 0000293   2.4668 303.8682  1.00271936 42196","cat":"geostationary"},{"name":"DIRECTV 15","l1":"1 40663U 15026A   26183.70471649 -.00000091  00000+0  00000+0 0  9990","l2":"2 40663   0.0175  66.4844 0000484 341.1134  23.9506  1.00269039 40615","cat":"geostationary"},{"name":"SKY MEXICO-1","l1":"1 40664U 15026B   26183.56699300 -.00000224  00000+0  00000+0 0  9999","l2":"2 40664   0.0178  34.8991 0002550  81.6332 289.3882  1.00273686 40600","cat":"geostationary"},{"name":"INTELSAT 34 (IS-34)","l1":"1 40874U 15039A   26183.57149969 -.00000275  00000+0  00000+0 0  9994","l2":"2 40874   0.0108  13.9056 0000469  22.0921  34.8455  1.00269667 39786","cat":"geostationary"},{"name":"INTELSAT 31 (IS-31)","l1":"1 41581U 16035A   26182.55806885 -.00000140  00000+0  00000+0 0  9992","l2":"2 41581   0.0162 287.8314 0000652 350.1203 107.5034  1.00270123 36825","cat":"geostationary"},{"name":"INTELSAT 36 (IS-36)","l1":"1 41747U 16053A   26183.38219022 -.00000014  00000+0  00000+0 0  9999","l2":"2 41747   0.0112  23.1610 0002024 324.0014 139.3450  1.00270659 36110","cat":"geostationary"},{"name":"INTELSAT 32E (IS-32E)","l1":"1 41945U 17007B   26183.43143799  .00000000  00000+0  00000+0 0  9996","l2":"2 41945   0.0218  28.0694 0000954 325.1520  39.3916  1.00263397 34370","cat":"geostationary"},{"name":"INTELSAT 35E (IS-35E)","l1":"1 42818U 17041A   26183.71833262  .00000000  00000+0  00000+0 0  9996","l2":"2 42818   0.0225  35.4628 0001993  63.0723  46.3178  1.00271477 32974","cat":"geostationary"},{"name":"INTELSAT 37E (IS-37E)","l1":"1 42950U 17059A   26183.72162595 -.00000130  00000+0  00000+0 0  9992","l2":"2 42950   0.0179  32.7676 0002838  69.6022  60.1704  1.00272937 32224","cat":"geostationary"},{"name":"AZERSPACE 2 (IS-38)","l1":"1 43632U 18074A   26183.44880176  .00000147  00000+0  00000+0 0  9996","l2":"2 43632   0.0187  35.8650 0001605  70.9304  20.3640  1.00271685 28609","cat":"geostationary"},{"name":"HORIZONS-3E","l1":"1 43633U 18074B   26183.68738308 -.00000020  00000+0  00000+0 0  9993","l2":"2 43633   0.0166 197.9110 0000602  85.7941  53.4880  1.00271230 28491","cat":"geostationary"},{"name":"AT&T T-16","l1":"1 44333U 19034A   26183.70480316 -.00000104  00000+0  00000+0 0  9997","l2":"2 44333   0.0156  62.5128 0000630 281.1843  89.9134  1.00271130 25782","cat":"geostationary"},{"name":"INTELSAT 39 (IS-39)","l1":"1 44476U 19049B   26183.45229632  .00000000  00000+0  00000+0 0  9999","l2":"2 44476   0.0215  27.0738 0000954 315.5013 162.6960  1.00269540 25282","cat":"geostationary"},{"name":"GALAXY 30 (G-30)","l1":"1 46114U 20056C   26183.70012315  .00000000  00000+0  00000+0 0  9996","l2":"2 46114   0.0212  28.7704 0002166  73.6259 305.3858  1.00271672 21447","cat":"geostationary"},{"name":"GALAXY 33 (G-33)","l1":"1 54026U 22128A   26183.69882314  .00000090  00000+0  00000+0 0  9990","l2":"2 54026   0.0123  43.2438 0002250  55.0472 301.0264  1.00271772 13895","cat":"geostationary"},{"name":"GALAXY 34 (G-34)","l1":"1 54027U 22128B   26183.77438794  .00000070  00000+0  00000+0 0  9997","l2":"2 54027   0.0129  30.0572 0001928  70.0374 330.4972  1.00269283 14060","cat":"geostationary"},{"name":"GALAXY 31 (G-31)","l1":"1 54243U 22153A   26183.70116315  .00000024  00000+0  00000+0 0  9999","l2":"2 54243   0.0144  81.6881 0001557  17.8273 312.6321  1.00272151  7281","cat":"geostationary"},{"name":"GALAXY 32 (G-32)","l1":"1 54244U 22153B   26183.56456632 -.00000164  00000+0  00000+0 0  9999","l2":"2 54244   0.0105  15.3279 0001988  35.2758 342.2488  1.00272409 13291","cat":"geostationary"},{"name":"GALAXY 35 (G-35)","l1":"1 54741U 22170A   26183.56413299 -.00000152  00000+0  00000+0 0  9999","l2":"2 54741   0.0164  55.7529 0002307  46.1625 288.6647  1.00272915 13049","cat":"geostationary"},{"name":"GALAXY 36 (G-36)","l1":"1 54742U 22170B   26183.63626661 -.00000175  00000+0  00000+0 0  9992","l2":"2 54742   0.0039  81.1750 0002923  11.7961 327.7578  1.00272523 12924","cat":"geostationary"},{"name":"GALAXY 37 (G-37)","l1":"1 57493U 23112A   26183.62872656  .00000000  00000+0  00000+0 0  9997","l2":"2 57493   0.0199  18.7322 0002059  87.9519 273.3259  1.00270023 10699","cat":"geostationary"}]